[{"OBJECT_NAME":"STARLINK-3198","OBJECT_ID":"2021-115AR","EPOCH":"2026-03-09T13:34:34.817664","MEAN_MOTION":15.0879053,"ECCENTRICITY":0.0001285,"INCLINATION":53.2172,"RA_OF_ASC_NODE":139.6726,"ARG_OF_PERICENTER":113.3539,"MEAN_ANOMALY":246.7588,"EPHEMERIS_TYPE":0,"CLASSIFICATION_TYPE":"U","NORAD_CAT_ID":49763,"ELEMENT_SET_NO":999,"REV_AT_EPOCH":23566,"BSTAR":0.00025397,"MEAN_MOTION_DOT":3.751e-5,"MEAN_MOTION_DDOT":0},{"OBJECT_NAME":"DELTA 1 DEB","OBJECT_ID":"1972-058EG","EPOCH":"2026-03-09T15:29:57.375744","MEAN_MOTION":14.93143945,"ECCENTRICITY":0.0071537,"INCLINATION":98.4418,"RA_OF_ASC_NODE":299.7647,"ARG_OF_PERICENTER":185.1751,"MEAN_ANOMALY":174.8735,"EPHEMERIS_TYPE":0,"CLASSIFICATION_TYPE":"U","NORAD_CAT_ID":8314,"ELEMENT_SET_NO":999,"REV_AT_EPOCH":83297,"BSTAR":0.00043799,"MEAN_MOTION_DOT":4.734e-5,"MEAN_MOTION_DDOT":0}]
